GLOBALSTAR M068 [-]     
1 32266U 07048D   23256.15123075 -.00000044  00000+0  32961-3 0  9992
2 32266  51.9880 102.3438 0001185 116.2945  42.3686 12.62766358736311
GLOBALSTAR M079 [+]     
1 37188U 10054A   23256.45041576 -.00000072  00000+0  17493-3 0  9993
2 37188  52.0039 296.3841 0000286  78.5421  27.9531 12.62267692595283
GLOBALSTAR M074 [+]     
1 37189U 10054B   23256.31279814 -.00000071  00000+0  18290-3 0  9992
2 37189  52.0015 296.2252 0000440 102.9759 337.9593 12.62269799595878
GLOBALSTAR M076 [+]     
1 37190U 10054C   23256.42289404 -.00000062  00000+0  23081-3 0  9996
2 37190  52.0028 296.0013 0000791  54.5520  47.7847 12.62261092595601
GLOBALSTAR M077 [+]     
1 37191U 10054D   23256.41978677 -.00000098  00000+0  31757-4 0  9992
2 37191  52.0052 252.6818 0000382  88.6629  58.0881 12.62260720595974
GLOBALSTAR M075 [+]     
1 37192U 10054E   23256.43141574 -.00000084  00000+0  11272-3 0  9997
2 37192  51.9972 338.5895 0000394  87.5006 352.8496 12.62261027594835
GLOBALSTAR M073 [+]     
1 37193U 10054F   23256.36530969 -.00000094  00000+0  53650-4 0  9998
2 37193  52.0040 252.1188 0000323  76.3741  63.3616 12.62267474596656
GLOBALSTAR M083 [+]     
1 37739U 11033A   23256.30442845 -.00000116  00000+0 -68086-4 0  9996
2 37739  51.9845 201.9114 0000162  65.8237  98.2314 12.62268763565669
GLOBALSTAR M088 [+]     
1 37740U 11033B   23256.56260333 -.00000054  00000+0  27576-3 0  9994
2 37740  51.9725 107.1587 0000513  58.9965 318.3713 12.62265656561247
GLOBALSTAR M091 [+]     
1 37741U 11033C   23256.49693247 -.00000085  00000+0  10217-3 0  9999
2 37741  51.9998  69.7630 0000480  72.9895 305.1919 12.62266245562027
GLOBALSTAR M085 [+]     
1 37742U 11033D   23256.57684881 -.00000100  00000+0  20865-4 0  9992
2 37742  51.9893  21.1265 0000463  99.6740 342.7791 12.62266757562544
GLOBALSTAR M081 [+]     
1 37743U 11033E   23256.52319071 -.00000111  00000+0 -39651-4 0  9990
2 37743  51.9982  23.6804 0000513  72.8113   5.3726 12.62270677562684
GLOBALSTAR M089 [+]     
1 37744U 11033F   23256.56934289 -.00000076  00000+0  15610-3 0  9996
2 37744  51.9956 337.8923 0000745  87.6071  19.9583 12.62266623563535
GLOBALSTAR M084 [+]     
1 38040U 11080A   23256.27480236 -.00000114  00000+0 -58059-4 0  9993
2 38040  51.9996 205.7348 0000694  65.2161  82.6527 12.62265610541477
GLOBALSTAR M080 [+]     
1 38041U 11080B   23256.13972793 -.00000117  00000+0 -73463-4 0  9992
2 38041  52.0048 207.5261 0000811  51.9291 322.3137 12.62264282541586
GLOBALSTAR M082 [+]     
1 38042U 11080C   23256.26043171 -.00000086  00000+0  97354-4 0  9995
2 38042  52.0071 162.5379 0000197 146.9109 356.2576 12.62270560542303
GLOBALSTAR M092 [+]     
1 38043U 11080D   23256.39337973 -.00000110  00000+0 -32388-4 0  9991
2 38043  52.0072 252.4752 0000663  90.0942  57.7668 12.62271903540777
GLOBALSTAR M090 [+]     
1 38044U 11080E   23256.04028663 -.00000090  00000+0  79520-4 0  9992
2 38044  51.9880 157.8456 0000380  52.7611  49.4647 12.62267498542395
GLOBALSTAR M086 [+]     
1 38045U 11080F   23256.24130162 -.00000093  00000+0  59655-4 0  9993
2 38045  51.9908 157.7325 0001096 358.3913 178.9059 12.62266359542363
GLOBALSTAR M097 [+]     
1 39072U 13005A   23255.75403213 -.00000092  00000+0  65257-4 0  9992
2 39072  52.0045  73.1099 0000451  74.5720 285.5197 12.62270654489556
GLOBALSTAR M093 [+]     
1 39073U 13005B   23256.59845139 -.00000091  00000+0  69184-4 0  9995
2 39073  51.9817  64.8699 0000350  49.9209 310.1688 12.62266612489617
GLOBALSTAR M094 [+]     
1 39074U 13005C   23256.51932890 -.00000078  00000+0  14299-3 0  9990
2 39074  51.9985 338.8545 0000394  93.3087 266.7824 12.62267297491210
GLOBALSTAR M096 [+]     
1 39075U 13005D   23256.53236824 -.00000101  00000+0  13996-4 0  9998
2 39075  52.0097  26.8228 0000385  86.2322 273.8589 12.62268350490130
GLOBALSTAR M078 [+]     
1 39076U 13005E   23255.79302815 -.00000187  00000+0 -46650-3 0  9997
2 39076  51.9867 114.4572 0000834 154.6745 205.4162 12.62269502488661
GLOBALSTAR M095 [+]     
1 39077U 13005F   23256.53261197 -.00000061  00000+0  23811-3 0  9992
2 39077  51.9789 109.7248 0000223 137.4439 222.6445 12.62268861488610
GLOBALSTAR M087 [+]     
1 52888U 22064A   23256.51123862 -.00000077  00000+0  97412-4 0  9992
2 52888  51.9753  96.6071 0009902  23.8106 336.3251 13.37552528 60361
